$$SOE
2459580.500000000, A.D. 2022-Jan-01 00:00:00.0000, 6.823649324442111E+09, -6.144183214785206E+09, -2.019595733971171E+09,
2459587.500000000, A.D. 2022-Jan-08 00:00:00.0000, 6.824540847859656E+09, -6.142402921057126E+09, -2.019827452527048E+09,
2459594.500000000, A.D. 2022-Jan-15 00:00:00.0000, 6.825431891681577E+09, -6.140622252197856E+09, -2.020059051318187E+09,
2459601.500000000, A.D. 2022-Jan-22 00:00:00.0000, 6.826322459713237E+09, -6.138841209754371E+09, -2.020290530689759E+09,
2459608.500000000, A.D. 2022-Jan-29 00:00:00.0000, 6.827212556339032E+09, -6.137059792797303E+09, -2.020521890879799E+09,
2459615.500000000, A.D. 2022-Feb-05 00:00:00.0000, 6.828102184315311E+09, -6.135277998592613E+09, -2.020753131871439E+09,
2459622.500000000, A.D. 2022-Feb-12 00:00:00.0000, 6.828991344736623E+09, -6.133495824341501E+09, -2.020984253530192E+09,
2459629.500000000, A.D. 2022-Feb-19 00:00:00.0000, 6.829880037850494E+09, -6.131713267619571E+09, -2.021215255711277E+09,
2459636.500000000, A.D. 2022-Feb-26 00:00:00.0000, 6.830768263409410E+09, -6.129930326238230E+09, -2.021446138275974E+09,
2459643.500000000, A.D. 2022-Mar-05 00:00:00.0000, 6.831656020719216E+09, -6.128146998145222E+09, -2.021676901082282E+09,
2459650.500000000, A.D. 2022-Mar-12 00:00:00.0000, 6.832543308605810E+09, -6.126363281429882E+09, -2.021907543975876E+09,
2459657.500000000, A.D. 2022-Mar-19 00:00:00.0000, 6.833430125371143E+09, -6.124579174404987E+09, -2.022138066785916E+09,
2459664.500000000, A.D. 2022-Mar-26 00:00:00.0000, 6.834316468760972E+09, -6.122794675770895E+09, -2.022368469328501E+09,
2459671.500000000, A.D. 2022-Apr-02 00:00:00.0000, 6.835202336012125E+09, -6.121009784917643E+09, -2.022598751428845E+09,
2459678.500000000, A.D. 2022-Apr-09 00:00:00.0000, 6.836087724251374E+09, -6.119224502359915E+09, -2.022828912986944E+09,
2459685.500000000, A.D. 2022-Apr-16 00:00:00.0000, 6.836972631603008E+09, -6.117438829650578E+09, -2.023058954066233E+09,
2459692.500000000, A.D. 2022-Apr-23 00:00:00.0000, 6.837857057736263E+09, -6.115652767688377E+09, -2.023288874800363E+09,
2459699.500000000, A.D. 2022-Apr-30 00:00:00.0000, 6.838741001982456E+09, -6.113866315664825E+09, -2.023518675130138E+09,
2459706.500000000, A.D. 2022-May-07 00:00:00.0000, 6.839624462084526E+09, -6.112079472623793E+09, -2.023748354812875E+09,
2459713.500000000, A.D. 2022-May-14 00:00:00.0000, 6.840507434968392E+09, -6.110292238595484E+09, -2.023977913583409E+09,
2459720.500000000, A.D. 2022-May-21 00:00:00.0000, 6.841389917505051E+09, -6.108504614546031E+09, -2.024207351218404E+09,
2459727.500000000, A.D. 2022-May-28 00:00:00.0000, 6.842271906784585E+09, -6.106716602101362E+09, -2.024436667538423E+09,
2459734.500000000, A.D. 2022-Jun-04 00:00:00.0000, 6.843153400179242E+09, -6.104928203358116E+09, -2.024665862398714E+09,
2459741.500000000, A.D. 2022-Jun-11 00:00:00.0000, 6.844034395340275E+09, -6.103139420779245E+09, -2.024894935681728E+09,
2459748.500000000, A.D. 2022-Jun-18 00:00:00.0000, 6.844914890167253E+09, -6.101350257160820E+09, -2.025123887293819E+09,
2459755.500000000, A.D. 2022-Jun-25 00:00:00.0000, 6.845794882779349E+09, -6.099560715702993E+09, -2.025352717171421E+09,
2459762.500000000, A.D. 2022-Jul-02 00:00:00.0000, 6.846674371622657E+09, -6.097770800250610E+09, -2.025581425314282E+09,
2459769.500000000, A.D. 2022-Jul-09 00:00:00.0000, 6.847553356103862E+09, -6.095980515526236E+09, -2.025810011866968E+09,
2459776.500000000, A.D. 2022-Jul-16 00:00:00.0000, 6.848431837695095E+09, -6.094189866272676E+09, -2.026038477154912E+09,
2459783.500000000, A.D. 2022-Jul-23 00:00:00.0000, 6.849309819311623E+09, -6.092398855227138E+09, -2.026266821466857E+09,
2459790.500000000, A.D. 2022-Jul-30 00:00:00.0000, 6.850187303046403E+09, -6.090607483280916E+09, -2.026495044865243E+09,
2459797.500000000, A.D. 2022-Aug-06 00:00:00.0000, 6.851064289860345E+09, -6.088815751176504E+09, -2.026723147301472E+09,
2459804.500000000, A.D. 2022-Aug-13 00:00:00.0000, 6.851940780405006E+09, -6.087023659987605E+09, -2.026951128735182E+09,
2459811.500000000, A.D. 2022-Aug-20 00:00:00.0000, 6.852816775408456E+09, -6.085231210885500E+09, -2.027178989154491E+09,
2459818.500000000, A.D. 2022-Aug-27 00:00:00.0000, 6.853692275692374E+09, -6.083438404918316E+09, -2.027406728562582E+09,
2459825.500000000, A.D. 2022-Sep-03 00:00:00.0000, 6.854567282068369E+09, -6.081645242913733E+09, -2.027634346962257E+09,
2459832.500000000, A.D. 2022-Sep-10 00:00:00.0000, 6.855441795203575E+09, -6.079851725481219E+09, -2.027861844344616E+09,
2459839.500000000, A.D. 2022-Sep-17 00:00:00.0000, 6.856315815484962E+09, -6.078057853115551E+09, -2.028089220684646E+09,
2459846.500000000, A.D. 2022-Sep-24 00:00:00.0000, 6.857189342942785E+09, -6.076263626452445E+09, -2.028316475953471E+09,
2459853.500000000, A.D. 2022-Oct-01 00:00:00.0000, 6.858062377473149E+09, -6.074469046698669E+09, -2.028543610171191E+09,
2459860.500000000, A.D. 2022-Oct-08 00:00:00.0000, 6.858934919767003E+09, -6.072674115714485E+09, -2.028770623495188E+09,
2459867.500000000, A.D. 2022-Oct-15 00:00:00.0000, 6.859806972013729E+09, -6.070878834549298E+09, -2.028997516160682E+09,
2459874.500000000, A.D. 2022-Oct-22 00:00:00.0000, 6.860678536197713E+09, -6.069083202114367E+09, -2.029224288211290E+09,
2459881.500000000, A.D. 2022-Oct-29 00:00:00.0000, 6.861549612485746E+09, -6.067287216586082E+09, -2.029450939460916E+09,
2459888.500000000, A.D. 2022-Nov-05 00:00:00.0000, 6.862420199804564E+09, -6.065490876798660E+09, -2.029677469655845E+09,
2459895.500000000, A.D. 2022-Nov-12 00:00:00.0000, 6.863290296643661E+09, -6.063694182359026E+09, -2.029903878553442E+09,
2459902.500000000, A.D. 2022-Nov-19 00:00:00.0000, 6.864159901364079E+09, -6.061897133437989E+09, -2.030130165929672E+09,
2459909.500000000, A.D. 2022-Nov-26 00:00:00.0000, 6.865029012275311E+09, -6.060099730635082E+09, -2.030356331572099E+09,
2459916.500000000, A.D. 2022-Dec-03 00:00:00.0000, 6.865897627646404E+09, -6.058301974928537E+09, -2.030582375274643E+09,
2459923.500000000, A.D. 2022-Dec-10 00:00:00.0000, 6.866765745696770E+09, -6.056503867691745E+09, -2.030808296836773E+09,
2459930.500000000, A.D. 2022-Dec-17 00:00:00.0000, 6.867633364591404E+09, -6.054705410801174E+09, -2.031034096071488E+09,
2459937.500000000, A.D. 2022-Dec-24 00:00:00.0000, 6.868500482549952E+09, -6.052906606901608E+09, -2.031259772837446E+09,
2459944.500000000, A.D. 2022-Dec-31 00:00:00.0000, 6.869367098427193E+09, -6.051107459721126E+09, -2.031485327119246E+09,
2459951.500000000, A.D. 2023-Jan-07 00:00:00.0000, 6.870233212887705E+09, -6.049307973473536E+09, -2.031710759088395E+09,
2459958.500000000, A.D. 2023-Jan-14 00:00:00.0000, 6.871098828207683E+09, -6.047508150851357E+09, -2.031936068923885E+09,
2459965.500000000, A.D. 2023-Jan-21 00:00:00.0000, 6.871963946059133E+09, -6.045707992782029E+09, -2.032161256592430E+09,
2459972.500000000, A.D. 2023-Jan-28 00:00:00.0000, 6.872828566944489E+09, -6.043907500142841E+09, -2.032386321940711E+09,
2459979.500000000, A.D. 2023-Feb-04 00:00:00.0000, 6.873692691073062E+09, -6.042106674406844E+09, -2.032611264832989E+09,
2459986.500000000, A.D. 2023-Feb-11 00:00:00.0000, 6.874556318884148E+09, -6.040305517413244E+09, -2.032836085185149E+09,
2459993.500000000, A.D. 2023-Feb-18 00:00:00.0000, 6.875419451153561E+09, -6.038504031085356E+09, -2.033060782956516E+09,
2460000.500000000, A.D. 2023-Feb-25 00:00:00.0000, 6.876282088946548E+09, -6.036702217257721E+09, -2.033285358136640E+09,
2460007.500000000, A.D. 2023-Mar-04 00:00:00.0000, 6.877144233519405E+09, -6.034900077593328E+09, -2.033509810734721E+09,
2460014.500000000, A.D. 2023-Mar-11 00:00:00.0000, 6.878005886198613E+09, -6.033097613590247E+09, -2.033734140774089E+09,
2460021.500000000, A.D. 2023-Mar-18 00:00:00.0000, 6.878867048284761E+09, -6.031294826726857E+09, -2.033958348299863E+09,
2460028.500000000, A.D. 2023-Mar-25 00:00:00.0000, 6.879727721184753E+09, -6.029491718792656E+09, -2.034182433422104E+09,
2460035.500000000, A.D. 2023-Apr-01 00:00:00.0000, 6.880587907197020E+09, -6.027688292011028E+09, -2.034406396401028E+09,
2460042.500000000, A.D. 2023-Apr-08 00:00:00.0000, 6.881447610334477E+09, -6.025884547728784E+09, -2.034630237617500E+09,
2460049.500000000, A.D. 2023-Apr-15 00:00:00.0000, 6.882306834848376E+09, -6.024080484778481E+09, -2.034853957304704E+09,
2460056.500000000, A.D. 2023-Apr-22 00:00:00.0000, 6.883165583262287E+09, -6.022276100565344E+09, -2.035077555456211E+09,
2460063.500000000, A.D. 2023-Apr-29 00:00:00.0000, 6.884023856651342E+09, -6.020471392625850E+09, -2.035301031977166E+09,
2460070.500000000, A.D. 2023-May-06 00:00:00.0000, 6.884881655406562E+09, -6.018666358876730E+09, -2.035524386771621E+09,
2460077.500000000, A.D. 2023-May-13 00:00:00.0000, 6.885738979507493E+09, -6.016860997447812E+09, -2.035747619749528E+09,
2460084.500000000, A.D. 2023-May-20 00:00:00.0000, 6.886595828537383E+09, -6.015055306589729E+09, -2.035970730815197E+09,
2460091.500000000, A.D. 2023-May-27 00:00:00.0000, 6.887452201634336E+09, -6.013249284685822E+09, -2.036193719857585E+09,
2460098.500000000, A.D. 2023-Jun-03 00:00:00.0000, 6.888308097436101E+09, -6.011442930342193E+09, -2.036416586745859E+09,
2460105.500000000, A.D. 2023-Jun-10 00:00:00.0000, 6.889163514042233E+09, -6.009636242569603E+09, -2.036639331333804E+09,
2460112.500000000, A.D. 2023-Jun-17 00:00:00.0000, 6.890018449082716E+09, -6.007829221117264E+09, -2.036861953486462E+09,
2460119.500000000, A.D. 2023-Jun-24 00:00:00.0000, 6.890872900212991E+09, -6.006021866902846E+09, -2.037084453154014E+09,
2460126.500000000, A.D. 2023-Jul-01 00:00:00.0000, 6.891726866288552E+09, -6.004214181710550E+09, -2.037306830448709E+09,
2460133.500000000, A.D. 2023-Jul-08 00:00:00.0000, 6.892580347545139E+09, -6.002406166335136E+09, -2.037529085504266E+09,
2460140.500000000, A.D. 2023-Jul-15 00:00:00.0000, 6.893433343507730E+09, -6.000597820001643E+09, -2.037751218232020E+09,
$$EOE